{
 "generated_at": "2026-06-22T10:39:18Z",
 "sources": [
  {
   "name": "CelesTrak",
   "url": "https://celestrak.org/NORAD/elements/",
   "license": "frei verfügbar; Attribution. Ursprünglich USSPACECOM/Space-Track."
  },
  {
   "name": "GCAT (J. McDowell, planet4589.org)",
   "url": "https://planet4589.org/space/gcat/",
   "license": "CC-BY 4.0"
  }
 ],
 "satellites": [
  {
   "norad": 59447,
   "name": "QPS-SAR-7 (TSUKUYOMI-II)",
   "intl": "2024-066F",
   "group": "sar",
   "gcat": {
    "class": "B",
    "category": "IMG-R",
    "owner": "QPS",
    "state": "J"
   },
   "omm": {
    "OBJECT_NAME": "QPS-SAR-7 (TSUKUYOMI-II)",
    "OBJECT_ID": "2024-066F",
    "EPOCH": "2026-06-21T12:54:22.290336",
    "MEAN_MOTION": 15.08973151,
    "ECCENTRICITY": 0.0002497,
    "INCLINATION": 45.6028,
    "RA_OF_ASC_NODE": 222.504,
    "ARG_OF_PERICENTER": 318.0586,
    "MEAN_ANOMALY": 42.0107,
    "EPHEMERIS_TYPE": 0,
    "CLASSIFICATION_TYPE": "U",
    "NORAD_CAT_ID": 59447,
    "ELEMENT_SET_NO": 999,
    "REV_AT_EPOCH": 12088,
    "BSTAR": 0.00030539,
    "MEAN_MOTION_DOT": 0.0000465,
    "MEAN_MOTION_DDOT": 0
   }
  },
  {
   "norad": 60542,
   "name": "QPS-SAR-8 (AMATERU-IV)",
   "intl": "2024-149CC",
   "group": "sar",
   "gcat": {
    "class": "B",
    "category": "IMG-R",
    "owner": "QPS",
    "state": "J"
   },
   "omm": {
    "OBJECT_NAME": "QPS-SAR-8 (AMATERU-IV)",
    "OBJECT_ID": "2024-149CC",
    "EPOCH": "2026-06-20T10:52:51.409056",
    "MEAN_MOTION": 15.04154503,
    "ECCENTRICITY": 0.0004471,
    "INCLINATION": 97.6648,
    "RA_OF_ASC_NODE": 250.5761,
    "ARG_OF_PERICENTER": 101.8607,
    "MEAN_ANOMALY": 258.312,
    "EPHEMERIS_TYPE": 0,
    "CLASSIFICATION_TYPE": "U",
    "NORAD_CAT_ID": 60542,
    "ELEMENT_SET_NO": 999,
    "REV_AT_EPOCH": 10076,
    "BSTAR": 0.00027197,
    "MEAN_MOTION_DOT": 0.00003712,
    "MEAN_MOTION_DDOT": 0
   }
  },
  {
   "norad": 63205,
   "name": "QPS-SAR-9 (SUSANOO-I)",
   "intl": "2025-050A",
   "group": "sar",
   "gcat": {
    "class": "B",
    "category": "IMG-R",
    "owner": "QPS",
    "state": "J"
   },
   "omm": {
    "OBJECT_NAME": "QPS-SAR-9 (SUSANOO-I)",
    "OBJECT_ID": "2025-050A",
    "EPOCH": "2026-06-21T10:30:03.388608",
    "MEAN_MOTION": 15.03174775,
    "ECCENTRICITY": 0.0004476,
    "INCLINATION": 42.0196,
    "RA_OF_ASC_NODE": 78.7501,
    "ARG_OF_PERICENTER": 199.496,
    "MEAN_ANOMALY": 160.5696,
    "EPHEMERIS_TYPE": 0,
    "CLASSIFICATION_TYPE": "U",
    "NORAD_CAT_ID": 63205,
    "ELEMENT_SET_NO": 999,
    "REV_AT_EPOCH": 6960,
    "BSTAR": 0.00029499,
    "MEAN_MOTION_DOT": 0.00003869,
    "MEAN_MOTION_DDOT": 0
   }
  },
  {
   "norad": 32382,
   "name": "RADARSAT-2",
   "intl": "2007-061A",
   "group": "resource",
   "gcat": {
    "class": "C",
    "category": "IMG-R",
    "owner": "CSA",
    "state": "CA"
   },
   "omm": {
    "OBJECT_NAME": "RADARSAT-2",
    "OBJECT_ID": "2007-061A",
    "EPOCH": "2026-06-21T12:22:57.989280",
    "MEAN_MOTION": 14.29982678,
    "ECCENTRICITY": 0.0001308,
    "INCLINATION": 98.5779,
    "RA_OF_ASC_NODE": 179.387,
    "ARG_OF_PERICENTER": 84.3473,
    "MEAN_ANOMALY": 275.7858,
    "EPHEMERIS_TYPE": 0,
    "CLASSIFICATION_TYPE": "U",
    "NORAD_CAT_ID": 32382,
    "ELEMENT_SET_NO": 999,
    "REV_AT_EPOCH": 96657,
    "BSTAR": 0.000051486,
    "MEAN_MOTION_DOT": 8.9e-7,
    "MEAN_MOTION_DDOT": 0
   }
  },
  {
   "norad": 37791,
   "name": "RASAT",
   "intl": "2011-044D",
   "group": "resource",
   "gcat": {
    "class": null,
    "category": null,
    "owner": null,
    "state": null
   },
   "omm": {
    "OBJECT_NAME": "RASAT",
    "OBJECT_ID": "2011-044D",
    "EPOCH": "2026-06-21T12:42:44.592192",
    "MEAN_MOTION": 14.68169242,
    "ECCENTRICITY": 0.0020577,
    "INCLINATION": 98.0574,
    "RA_OF_ASC_NODE": 263.8605,
    "ARG_OF_PERICENTER": 174.9075,
    "MEAN_ANOMALY": 196.0613,
    "EPHEMERIS_TYPE": 0,
    "CLASSIFICATION_TYPE": "U",
    "NORAD_CAT_ID": 37791,
    "ELEMENT_SET_NO": 999,
    "REV_AT_EPOCH": 79382,
    "BSTAR": 0.000047487,
    "MEAN_MOTION_DOT": 0.00000225,
    "MEAN_MOTION_DDOT": 0
   }
  },
  {
   "norad": 44322,
   "name": "RCM-1",
   "intl": "2019-033A",
   "group": "sar",
   "gcat": {
    "class": "C",
    "category": "IMG-R",
    "owner": "CSA",
    "state": "CA"
   },
   "omm": {
    "OBJECT_NAME": "RCM-1",
    "OBJECT_ID": "2019-033A",
    "EPOCH": "2026-06-22T03:54:02.809728",
    "MEAN_MOTION": 14.92587817,
    "ECCENTRICITY": 0.0001417,
    "INCLINATION": 97.7612,
    "RA_OF_ASC_NODE": 180.5377,
    "ARG_OF_PERICENTER": 91.5344,
    "MEAN_ANOMALY": 268.6038,
    "EPHEMERIS_TYPE": 0,
    "CLASSIFICATION_TYPE": "U",
    "NORAD_CAT_ID": 44322,
    "ELEMENT_SET_NO": 999,
    "REV_AT_EPOCH": 38282,
    "BSTAR": -0.0000017345,
    "MEAN_MOTION_DOT": -7.4e-7,
    "MEAN_MOTION_DDOT": 0
   }
  },
  {
   "norad": 44324,
   "name": "RCM-2",
   "intl": "2019-033C",
   "group": "sar",
   "gcat": {
    "class": "C",
    "category": "IMG-R",
    "owner": "CSA",
    "state": "CA"
   },
   "omm": {
    "OBJECT_NAME": "RCM-2",
    "OBJECT_ID": "2019-033C",
    "EPOCH": "2026-06-21T06:27:04.143744",
    "MEAN_MOTION": 14.92589726,
    "ECCENTRICITY": 0.0001542,
    "INCLINATION": 97.7605,
    "RA_OF_ASC_NODE": 179.7011,
    "ARG_OF_PERICENTER": 90.8059,
    "MEAN_ANOMALY": 269.3337,
    "EPHEMERIS_TYPE": 0,
    "CLASSIFICATION_TYPE": "U",
    "NORAD_CAT_ID": 44324,
    "ELEMENT_SET_NO": 999,
    "REV_AT_EPOCH": 38269,
    "BSTAR": 0.000013826,
    "MEAN_MOTION_DOT": 8.6e-7,
    "MEAN_MOTION_DDOT": 0
   }
  },
  {
   "norad": 44323,
   "name": "RCM-3",
   "intl": "2019-033B",
   "group": "sar",
   "gcat": {
    "class": "C",
    "category": "IMG-R",
    "owner": "CSA",
    "state": "CA"
   },
   "omm": {
    "OBJECT_NAME": "RCM-3",
    "OBJECT_ID": "2019-033B",
    "EPOCH": "2026-06-21T12:21:14.368896",
    "MEAN_MOTION": 14.92589641,
    "ECCENTRICITY": 0.0001495,
    "INCLINATION": 97.7599,
    "RA_OF_ASC_NODE": 179.9934,
    "ARG_OF_PERICENTER": 90.7087,
    "MEAN_ANOMALY": 269.4303,
    "EPHEMERIS_TYPE": 0,
    "CLASSIFICATION_TYPE": "U",
    "NORAD_CAT_ID": 44323,
    "ELEMENT_SET_NO": 999,
    "REV_AT_EPOCH": 38274,
    "BSTAR": 0.0000045934,
    "MEAN_MOTION_DOT": -8e-8,
    "MEAN_MOTION_DDOT": 0
   }
  },
  {
   "norad": 37387,
   "name": "RESOURCESAT-2",
   "intl": "2011-015A",
   "group": "resource",
   "gcat": {
    "class": null,
    "category": "IMG",
    "owner": "ISRO",
    "state": "IN"
   },
   "omm": {
    "OBJECT_NAME": "RESOURCESAT-2",
    "OBJECT_ID": "2011-015A",
    "EPOCH": "2026-06-20T11:13:01.932672",
    "MEAN_MOTION": 14.21600287,
    "ECCENTRICITY": 0.0010271,
    "INCLINATION": 98.7643,
    "RA_OF_ASC_NODE": 238.8867,
    "ARG_OF_PERICENTER": 244.9511,
    "MEAN_ANOMALY": 115.0601,
    "EPHEMERIS_TYPE": 0,
    "CLASSIFICATION_TYPE": "U",
    "NORAD_CAT_ID": 37387,
    "ELEMENT_SET_NO": 999,
    "REV_AT_EPOCH": 78664,
    "BSTAR": 0.00002096,
    "MEAN_MOTION_DOT": 2e-8,
    "MEAN_MOTION_DDOT": 0
   }
  },
  {
   "norad": 41877,
   "name": "RESOURCESAT-2A",
   "intl": "2016-074A",
   "group": "resource",
   "gcat": {
    "class": "C",
    "category": "IMG",
    "owner": "ISRO",
    "state": "IN"
   },
   "omm": {
    "OBJECT_NAME": "RESOURCESAT-2A",
    "OBJECT_ID": "2016-074A",
    "EPOCH": "2026-06-21T12:07:00.659136",
    "MEAN_MOTION": 14.2161787,
    "ECCENTRICITY": 0.0003304,
    "INCLINATION": 98.7521,
    "RA_OF_ASC_NODE": 245.9744,
    "ARG_OF_PERICENTER": 76.6022,
    "MEAN_ANOMALY": 283.5524,
    "EPHEMERIS_TYPE": 0,
    "CLASSIFICATION_TYPE": "U",
    "NORAD_CAT_ID": 41877,
    "ELEMENT_SET_NO": 999,
    "REV_AT_EPOCH": 49491,
    "BSTAR": 0.000075879,
    "MEAN_MOTION_DOT": 0.00000122,
    "MEAN_MOTION_DDOT": 0
   }
  }
 ]
}
