RADARSAT-2              
1 32382U 07061A   26172.51594895  .00000089  00000+0  51486-4 0  9990
2 32382  98.5779 179.3870 0001308  84.3473 275.7858 14.29982678966572
RESOURCESAT-2           
1 37387U 11015A   26171.46738348  .00000002  00000+0  20960-4 0  9998
2 37387  98.7643 238.8867 0010271 244.9511 115.0601 14.21600287786642
RASAT                   
1 37791U 11044D   26172.52968278  .00000225  00000+0  47487-4 0  9994
2 37791  98.0574 263.8605 0020577 174.9075 196.0613 14.68169242793824
RESOURCESAT-2A          
1 41877U 16074A   26172.50486874  .00000122  00000+0  75879-4 0  9999
2 41877  98.7521 245.9744 0003304  76.6022 283.5524 14.21617870494912
RCM-1                   
1 44322U 19033A   26173.16253252 -.00000074  00000+0 -17345-5 0  9993
2 44322  97.7612 180.5377 0001417  91.5344 268.6038 14.92587817382827
RCM-3                   
1 44323U 19033B   26172.51474964 -.00000008  00000+0  45934-5 0  9998
2 44323  97.7599 179.9934 0001495  90.7087 269.4303 14.92589641382746
RCM-2                   
1 44324U 19033C   26172.26879796  .00000086  00000+0  13826-4 0  9992
2 44324  97.7605 179.7011 0001542  90.8059 269.3337 14.92589726382696
QPS-SAR-7 (TSUKUYOMI-II)
1 59447U 24066F   26172.53775799  .00004650  00000+0  30539-3 0  9994
2 59447  45.6028 222.5040 0002497 318.0586  42.0107 15.08973151120887
QPS-SAR-8 (AMATERU-IV)  
1 60542U 24149CC  26171.45337279  .00003712  00000+0  27197-3 0  9995
2 60542  97.6648 250.5761 0004471 101.8607 258.3120 15.04154503100767
QPS-SAR-9 (SUSANOO-I)   
1 63205U 25050A   26172.43753922  .00003869  00000+0  29499-3 0  9992
2 63205  42.0196  78.7501 0004476 199.4960 160.5696 15.03174775 69601
